ONEWEB-0201             
1 48241U 21031AH  21330.50140107  .00000306  00000+0  79173-3 0  9991
2 48241  87.8963 260.3862 0001744  71.8077 288.3243 13.14503791 29819
ONEWEB-0207             
1 48242U 21031AJ  21330.55214310  .00000075  00000+0  16770-3 0  9992
2 48242  87.8948 260.3843 0001358  80.4176 279.7107 13.14500334 29733
ONEWEB-0208             
1 48243U 21031AK  21330.83335764 -.00000167  00000+0 -48584-3 0  9993
2 48243  87.9019 260.3160 0002022  56.2838 303.8484 13.14499644 29784
ONEWEB-0200             
1 48244U 21031AL  21330.18847302  .00000267  00000+0  68576-3 0  9990
2 48244  87.9051 260.4221 0002023  54.2700 305.8618 13.14504069 29629
ONEWEB-0217             
1 48245U 21031AM  21330.50984812  .00000088  00000+0  20401-3 0  9991
2 48245  87.8950 260.3854 0001997  54.6598 305.4719 13.14504324 29617
ONEWEB-0211             
1 48767U 21045A   21330.91667824 -.00034253  00000+0 -91340-1 0  9992
2 48767  87.9169 229.9227 0002074  68.3670 132.9445 13.15563369  3283
ONEWEB-0223             
1 48768U 21045B   21330.91667824 -.00033710  00000+0 -89889-1 0  9995
2 48768  87.9073 229.9262 0002313  70.6174  30.8178 13.15561617  3304
ONEWEB-0230             
1 48769U 21045C   21330.91667824 -.00033994  00000+0 -90643-1 0  9990
2 48769  87.9121 229.8611 0002329  76.0409 155.3838 13.15567313  3297
ONEWEB-0237             
1 48770U 21045D   21330.91667824 -.00033385  00000+0 -89018-1 0  9990
2 48770  87.9108 229.7660 0002383  78.2998 203.0541 13.15562548  3280
ONEWEB-0235             
1 48771U 21045E   21330.91667824 -.00032945  00000+0 -87840-1 0  9993
2 48771  87.9120 229.7619 0002852  78.3927 332.9962 13.15563376  3282
ONEWEB-0242             
1 48772U 21045F   21330.91667824 -.00033442  00000+0 -89171-1 0  9996
2 48772  87.9088 229.9207 0002148  70.7785  10.6424 13.15562230  3288
ONEWEB-0241             
1 48773U 21045G   21330.91667824 -.00034152  00000+0 -91072-1 0  9999
2 48773  87.9057 229.9260 0002228  57.6083  83.8148 13.15561826  3283
ONEWEB-0243             
1 48774U 21045H   21330.91667824 -.00032804  00000+0 -87464-1 0  9992
2 48774  87.9128 229.8065 0002289  82.7768 268.6029 13.15562364  3279
ONEWEB-0222             
1 48775U 21045J   21330.91667824 -.00032925  00000+0 -87795-1 0  9994
2 48775  87.9117 229.8457 0002108  69.3413 331.9798 13.15558342  3280
ONEWEB-0244             
1 48776U 21045K   21330.91667824 -.00034536  00000+0 -84103-1 0  9995
2 48776  87.9181 229.9019 0003224  94.1207  60.1852 13.21720190  3308
ONEWEB-0247             
1 48777U 21045L   21330.46851227  .00000027  00000+0  38979-4 0  9997
2 48777  87.9085 229.9721 0002660  75.9999 284.1426 13.15551179 26795
ONEWEB-0245             
1 48778U 21045M   21330.91667824 -.00032814  00000+0 -87488-1 0  9993
2 48778  87.9131 229.7635 0001871  58.4708 282.8768 13.15566602  3276
ONEWEB-0229             
1 48779U 21045N   21330.91667824 -.00032728  00000+0 -87264-1 0  9990
2 48779  87.9125 229.7636 0002227  68.6050 302.7674 13.15561333  3285
ONEWEB-0228             
1 48780U 21045P   21330.91667824 -.00037781  00000+0 -10078+0 0  9993
2 48780  87.9108 229.8244 0001995  76.7143 224.7495 13.15565715  3291
ONEWEB-0232             
1 48781U 21045Q   21330.91667824 -.00033050  00000+0 -88118-1 0  9991
2 48781  87.9155 229.9183 0001963  58.9081 272.4660 13.15566237  3288
ONEWEB-0231             
1 48782U 21045R   21330.91667824 -.00033274  00000+0 -88727-1 0  9996
2 48782  87.9138 229.8851 0002326  76.8970 354.5263 13.15558596  3304
ONEWEB-0234             
1 48783U 21045S   21330.91667824 -.00033201  00000+0 -88520-1 0  9998
2 48783  87.9147 229.8915 0001621  63.2178 248.1712 13.15567823  3280
ONEWEB-0238             
1 48784U 21045T   21330.91667824 -.00033822  00000+0 -89604-1 0  9992
2 48784  87.9145 229.8548 0002329  79.1530 172.6950 13.16004754  3280
ONEWEB-0240             
1 48785U 21045U   21330.91667824 -.00034181  00000+0 -91153-1 0  9994
2 48785  87.9160 229.8800 0002362  57.8167  93.5295 13.15559188  3283
ONEWEB-0246             
1 48786U 21045V   21330.91667824 -.00034296  00000+0 -91457-1 0  9999
2 48786  87.9126 229.9141 0002236  76.9741  94.3441 13.15562100  3285
ONEWEB-0210             
1 48787U 21045W   21330.91667824 -.00033437  00000+0 -89154-1 0  9997
2 48787  87.9125 229.9103 0002553  90.8376 200.5509 13.15566040  3298
ONEWEB-0214             
1 48788U 21045X   21330.91667824 -.00033965  00000+0 -90569-1 0  9996
2 48788  87.9130 229.9130 0002482  98.0490 143.3037 13.15564290  3298
ONEWEB-0221             
1 48789U 21045Y   21330.91667824 -.00034200  00000+0 -91200-1 0  9993
2 48789  87.9147 229.9183 0002053  73.6826 137.6616 13.15562161  3295
ONEWEB-0213             
1 48790U 21045Z   21330.91667824 -.00033536  00000+0 -89417-1 0  9993
2 48790  87.9137 229.8010 0002279  75.9585 195.3585 13.15567054  3282
ONEWEB-0212             
1 48791U 21045AA  21330.91667824 -.00038416  00000+0 -10248+0 0  9990
2 48791  87.9130 229.8383 0001330  70.7340 290.6906 13.15566774  3282
ONEWEB-0227             
1 48792U 21045AB  21330.91667824 -.00032809  00000+0 -87477-1 0  9991
2 48792  87.9150 229.7873 0001985  65.1627 326.1950 13.15564102  3300
ONEWEB-0226             
1 48793U 21045AC  21330.91667824 -.00033071  00000+0 -88183-1 0  9999
2 48793  87.9121 229.7928 0002519  86.9685 334.4629 13.15559409  3285
ONEWEB-0224             
1 48794U 21045AD  21330.91667824 -.00039939  00000+0 -10656+0 0  9997
2 48794  87.9098 229.9233 0001427  52.9941 168.4451 13.15565043  3295
ONEWEB-0233             
1 48795U 21045AE  21330.91667824 -.00033991  00000+0 -90659-1 0  9993
2 48795  87.9123 229.7801 0001911  61.4588  75.0731 13.15549123  3299
ONEWEB-0190             
1 48796U 21045AF  21330.91667824 -.00033597  00000+0 -89581-1 0  9998
2 48796  87.9138 229.7609 0003145  74.8185 186.4983 13.15565379  3291
ONEWEB-0236             
1 48797U 21045AG  21330.91667824 -.00034310  00000+0 -91494-1 0  9999
2 48797  87.9162 229.9249 0001810  71.3040 110.1480 13.15563517  3298
ONEWEB-0248             
1 48798U 21045AH  21330.91667824 -.00033967  00000+0 -90578-1 0  9999
2 48798  87.9083 229.9323 0002738  58.0430  63.3906 13.15560408  3297
ONEWEB-0225             
1 48799U 21045AJ  21330.91667824 -.00032854  00000+0 -87602-1 0  9998
2 48799  87.9118 229.8699 0002571  68.0571 313.3978 13.15559950  3280
ONEWEB-0215             
1 48800U 21045AK  21330.91667824 -.00034262  00000+0 -91367-1 0  9999
2 48800  87.9128 229.9144 0002861  63.0581  98.2557 13.15561520  3297
ONEWEB-0216             
1 48801U 21045AL  21330.91667824 -.00033773  00000+0 -90059-1 0  9993
2 48801  87.9159 229.8581 0001871  89.3415  22.0225 13.15560562  3284
ONEWEB-0239             
1 48802U 21045AM  21330.91667824 -.00033543  00000+0 -89445-1 0  9996
2 48802  87.9108 229.8812 0002815  65.4753  25.8679 13.15558967  3285
ONEWEB-0249             
1 48967U 21060A   21330.91667824  .00007166  00000+0  18699-1 0  9998
2 48967  87.9159 199.6528 0001684  86.4338 193.2057 13.16586798  3291
ONEWEB-0250             
1 48968U 21060B   21330.91667824  .00006992  00000+0  18244-1 0  9991
2 48968  87.9140 199.6614 0001977  68.5073 189.3832 13.16583632  3291
ONEWEB-0251             
1 48969U 21060C   21330.91667824  .00041908  00000+0  12752-2 0  9997
2 48969  87.4243 185.4411 0012894  81.1621 310.0381 15.33764276  3635
ONEWEB-0252             
1 48970U 21060D   21330.91667824  .00005705  00000+0  14883-1 0  9990
2 48970  87.9139 199.6874 0001983  85.3241  41.6152 13.16586063  3286
ONEWEB-0253             
1 48971U 21060E   21330.91667824  .00005878  00000+0  15334-1 0  9994
2 48971  87.9147 199.6898 0002193  79.5589  91.0127 13.16581533  3284
ONEWEB-0254             
1 48972U 21060F   21330.91667824  .00005751  00000+0  15004-1 0  9999
2 48972  87.9147 199.6509 0002186  80.9221  56.8791 13.16584368  3303
ONEWEB-0255             
1 48973U 21060G   21330.91667824  .00007181  00000+0  18738-1 0  9996
2 48973  87.9187 199.6931 0002087  76.9574 235.4436 13.16587079  3294
ONEWEB-0256             
1 48974U 21060H   21330.91667824  .00006122  00000+0  15973-1 0  9999
2 48974  87.9147 199.6857 0001389  93.4246  98.9558 13.16583381  3291
ONEWEB-0257             
1 48975U 21060J   21330.91667824  .00006558  00000+0  17109-1 0  9996
2 48975  87.9162 199.7068 0001912  87.8315 311.8546 13.16589048  3302
ONEWEB-0258             
1 48976U 21060K   21330.91667824  .00006715  00000+0  17520-1 0  9999
2 48976  87.9171 199.6897 0001741  76.2832 312.4411 13.16586052  3296
ONEWEB-0259             
1 48977U 21060L   21330.91667824  .00006466  00000+0  16870-1 0  9990
2 48977  87.9153 199.6701 0002302  71.5155 339.0797 13.16590300  3306
ONEWEB-0260             
1 48978U 21060M   21330.91667824  .00006015  00000+0  15691-1 0  9991
2 48978  87.9155 199.6916 0002041 110.4740 332.8026 13.16589283  3304
ONEWEB-0261             
1 48979U 21060N   21330.91667824  .00006848  00000+0  17870-1 0  9997
2 48979  87.9160 199.6851 0002068  86.2132 160.7093 13.16583647 22090
ONEWEB-0262             
1 48980U 21060P   21330.91667824  .00007262  00000+0  18950-1 0  9990
2 48980  87.9154 199.6143 0002286  82.9166 251.2635 13.16586441  3295
ONEWEB-0263             
1 48981U 21060Q   21330.91667824  .00006111  00000+0  15944-1 0  9993
2 48981  87.9140 199.5958 0002517  74.5677 106.9537 13.16586446  3286
ONEWEB-0264             
1 48982U 21060R   21330.91667824  .00007207  00000+0  18806-1 0  9991
2 48982  87.9197 199.5229 0001843  78.9647 288.0288 13.16586020  3302
ONEWEB-0265             
1 48983U 21060S   21330.91667824  .00040954  00000+0  92990-3 0  9996
2 48983  87.4002 184.5149 0009502  72.1718 203.6602 15.42825423  3636
ONEWEB-0266             
1 48984U 21060T   21330.91667824  .00007120  00000+0  18579-1 0  9994
2 48984  87.9141 199.6340 0001527  75.0185 193.7471 13.16588863  3282
